TEIKYOSAT-4 (OORURI)    
1 49396U 21102B   26068.67534185  .00002438  00000+0  15740-3 0  9994
2 49396  97.3797 101.9931 0010345 276.5421  83.4630 15.09119208237719
STARLINK-3922           
1 52584U 22051BA  26068.41292734 -.00000464  00000+0 -11077-4 0  9993
2 52584  53.2167 120.3627 0001409  98.0258 262.0895 15.08838869211548
